CCSDS_OMM_VERS,COMMENT,CREATION_DATE,ORIGINATOR,OBJECT_NAME,OBJECT_ID,CENTER_NAME,REF_FRAME,TIME_SYSTEM,MEAN_ELEMENT_THEORY,EPOCH,MEAN_MOTION,ECCENTRICITY,INCLINATION,RA_OF_ASC_NODE,ARG_OF_PERICENTER,MEAN_ANOMALY,EPHEMERIS_TYPE,CLASSIFICATION_TYPE,NORAD_CAT_ID,ELEMENT_SET_NO,REV_AT_EPOCH,BSTAR,MEAN_MOTION_DOT,MEAN_MOTION_DDOT,SEMIMAJOR_AXIS,PERIOD,APOAPSIS,PERIAPSIS,OBJECT_TYPE,RCS_SIZE,COUNTRY_CODE,LAUNCH_DATE,SITE,DECAY_DATE,FILE,GP_ID,TLE_LINE0,TLE_LINE1,TLE_LINE2,,,,,,,AVG_ALTITUDE,,AVG_VELOCITY
2,GENERATED VIA SPACE-TRACK.ORG API,2022-06-03T02:31:39,18 SPCS,IRIDIUM 129,2017-061D,EARTH,TEME,UTC,SGP4,2022-06-02T18:19:29.544096,14.34220928,0.000216,86.3956,281.7901,104.4831,255.6605,0,U,42958,999,24332,5.05E-05,1.61E-06,0,7155.794,100.403,779.204,776.113,PAYLOAD,LARGE,US,10/9/2017,AFWTR,,3477983,205207584,0 IRIDIUM 129,1 42958U 17061D   22153.76353639  .00000161  00000-0  50530-4 0  9993,2 42958  86.3956 281.7901 0002160 104.4831 255.6605 14.34220928243323,,,,,,,785.794,,7.46345648
2,GENERATED VIA SPACE-TRACK.ORG API,2022-06-03T07:16:12,18 SPCS,IRIDIUM 119,2017-061E,EARTH,TEME,UTC,SGP4,2022-06-03T01:56:11.209056,14.34212947,0.000213,86.3958,281.6458,103.0098,257.1335,0,U,42959,999,24338,3.61E-05,1.21E-06,0,7155.82,100.404,779.209,776.161,PAYLOAD,LARGE,US,10/9/2017,AFWTR,,3478474,205226586,0 IRIDIUM 119,1 42959U 17061E   22154.08068529  .00000121  00000-0  36053-4 0  9991,2 42959  86.3958 281.6458 0002130 103.0098 257.1335 14.34212947243384,,,,,,,785.82,,7.463442921
2,GENERATED VIA SPACE-TRACK.ORG API,2022-06-03T06:36:13,18 SPCS,IRIDIUM 107,2017-061F,EARTH,TEME,UTC,SGP4,2022-06-03T02:23:36.503520,14.34214819,0.0002271,86.3958,281.6499,97.7661,262.3792,0,U,42960,999,24340,4.88E-05,1.56E-06,0,7155.814,100.403,779.304,776.054,PAYLOAD,LARGE,US,10/9/2017,AFWTR,,3478164,205218870,0 IRIDIUM 107,1 42960U 17061F   22154.09972805  .00000156  00000-0  48787-4 0  9990,2 42960  86.3958 281.6499 0002271  97.7661 262.3792 14.34214819243400,,,,,,,785.814,,7.46344605
2,GENERATED VIA SPACE-TRACK.ORG API,2022-06-03T06:26:12,18 SPCS,IRIDIUM 132,2017-061G,EARTH,TEME,UTC,SGP4,2022-06-03T02:32:42.951552,14.34213649,0.0002459,86.3956,281.6357,98.1351,262.0123,0,U,42961,999,24339,4.91E-05,1.57E-06,0,7155.818,100.403,779.442,775.923,PAYLOAD,LARGE,US,10/9/2017,AFWTR,,3478043,205215647,0 IRIDIUM 132,1 42961U 17061G   22154.10605268  .00000157  00000-0  49085-4 0  9992,2 42961  86.3956 281.6357 0002459  98.1351 262.0123 14.34213649243394,,,,,,,785.818,,7.463443964
2,GENERATED VIA SPACE-TRACK.ORG API,2022-06-03T02:31:39,18 SPCS,IRIDIUM 136,2017-061H,EARTH,TEME,UTC,SGP4,2022-06-02T15:35:07.510272,14.3421815,0.0002035,86.3955,281.8276,101.8267,258.3158,0,U,42962,999,24334,4.91E-05,1.57E-06,0,7155.803,100.403,779.124,776.212,PAYLOAD,LARGE,US,10/9/2017,AFWTR,,3477983,205208085,0 IRIDIUM 136,1 42962U 17061H   22153.64939248  .00000157  00000-0  49139-4 0  9999,2 42962  86.3955 281.8276 0002035 101.8267 258.3158 14.34218150243347,,,,,,,785.803,,7.463451786
2,GENERATED VIA SPACE-TRACK.ORG API,2022-06-02T17:55:29,18 SPCS,IRIDIUM 139,2017-061J,EARTH,TEME,UTC,SGP4,2022-06-02T14:03:45.624672,14.34211036,0.0002305,86.3957,281.8928,99.6935,260.4521,0,U,42963,999,24334,6.34E-05,1.97E-06,0,7155.826,100.404,779.341,776.042,PAYLOAD,LARGE,US,10/9/2017,AFWTR,,3477482,205173003,0 IRIDIUM 139,1 42963U 17061J   22153.58594473  .00000197  00000-0  63372-4 0  9999,2 42963  86.3957 281.8928 0002305  99.6935 260.4521 14.34211036243344,,,,,,,785.826,,7.463439792
2,GENERATED VIA SPACE-TRACK.ORG API,2022-06-03T02:31:39,18 SPCS,IRIDIUM 125,2017-061K,EARTH,TEME,UTC,SGP4,2022-06-02T15:25:58.640448,14.34219952,0.0002369,86.3957,281.9029,99.4822,260.6642,0,U,42964,999,24336,4.86E-05,1.56E-06,0,7155.797,100.403,779.357,775.967,PAYLOAD,LARGE,US,10/9/2017,AFWTR,,3477983,205206583,0 IRIDIUM 125,1 42964U 17061K   22153.64303982  .00000156  00000-0  48640-4 0  9996,2 42964  86.3957 281.9029 0002369  99.4822 260.6642 14.34219952243364,,,,,,,785.797,,7.463454915
2,GENERATED VIA SPACE-TRACK.ORG API,2022-06-03T02:31:39,18 SPCS,SENTINEL 5P,2017-064A,EARTH,TEME,UTC,SGP4,2022-06-02T14:23:56.577696,14.19568372,0.0001166,98.7315,93.5702,82.4704,277.6604,0,U,42969,999,24021,3.00E-05,2.00E-07,0,7204.95,101.439,827.655,825.975,PAYLOAD,LARGE,ESA,10/13/2017,PKMTR,,3477983,205207334,0 SENTINEL 5P,1 42969U 17064A   22153.59996039  .00000020  00000-0  30028-4 0  9990,2 42969  98.7315  93.5702 0001166  82.4704 277.6604 14.19568372240217,,,,,,,834.95,,7.437953071
2,GENERATED VIA SPACE-TRACK.ORG API,2022-06-03T02:31:39,18 SPCS,COSMOS 2523,2017-037E,EARTH,TEME,UTC,SGP4,2022-06-02T20:16:43.917600,14.87275808,0.0079452,97.6559,206.5334,102.2197,258.7927,0,U,42986,999,24912,0.00012522,1.14E-05,0,6984.589,96.821,661.948,550.96,PAYLOAD,MEDIUM,CIS,6/23/2017,PKMTR,,3477983,205207587,0 COSMOS 2523,1 42986U 17037E   22153.84495275  .00001140  00000-0  12522-3 0  9995,2 42986  97.6559 206.5334 0079452 102.2197 258.7927 14.87275808249122,,,,,,,614.589,,7.55437417
2,GENERATED VIA SPACE-TRACK.ORG API,2022-06-03T02:31:39,18 SPCS,SKYSAT C11,2017-068A,EARTH,TEME,UTC,SGP4,2022-06-02T18:23:13.349472,15.37490007,0.0001883,97.2897,272.7865,162.7092,197.4218,0,U,42987,999,25613,0.00016243,5.89E-05,0,6831.671,93.659,454.823,452.25,PAYLOAD,MEDIUM,US,10/31/2017,AFWTR,,3477983,205207836,0 SKYSAT C11,1 42987U 17068A   22153.76612673  .00005891  00000-0  16243-3 0  9995,2 42987  97.2897 272.7865 0001883 162.7092 197.4218 15.37490007256133,,,,,,,461.671,,7.638453653
2,GENERATED VIA SPACE-TRACK.ORG API,2022-06-03T07:06:16,18 SPCS,SKYSAT C10,2017-068B,EARTH,TEME,UTC,SGP4,2022-06-03T03:03:16.747488,15.37609593,7.15E-05,97.2946,273.3671,175.5775,184.5476,0,U,42988,999,25621,0.00016111,5.87E-05,0,6831.317,93.652,453.671,452.694,PAYLOAD,MEDIUM,US,10/31/2017,AFWTR,,3478422,205224795,0 SKYSAT C10,1 42988U 17068B   22154.12727717  .00005865  00000-0  16111-3 0  9998,2 42988  97.2946 273.3671 0000715 175.5775 184.5476 15.37609593256218,,,,,,,461.317,,7.638651564
2,GENERATED VIA SPACE-TRACK.ORG API,2022-06-02T17:55:29,18 SPCS,SKYSAT C9,2017-068C,EARTH,TEME,UTC,SGP4,2022-06-02T07:56:42.946368,15.37609907,0.0001054,97.2884,271.7521,263.2855,96.827,0,U,42989,999,25628,0.00015569,5.67E-05,0,6831.316,93.652,453.901,452.461,PAYLOAD,MEDIUM,US,10/31/2017,AFWTR,,3477482,205171505,0 SKYSAT C9,1 42989U 17068C   22153.33105262  .00005665  00000-0  15569-3 0  9990,2 42989  97.2884 271.7521 0001054 263.2855  96.8270 15.37609907256280,,,,,,,461.316,,7.638652123
2,GENERATED VIA SPACE-TRACK.ORG API,2022-06-02T17:55:29,18 SPCS,SKYSAT C8,2017-068D,EARTH,TEME,UTC,SGP4,2022-06-02T07:49:59.910240,15.37577047,0.0002718,97.2953,272.988,103.621,256.5338,0,U,42990,999,25611,0.00015904,5.78E-05,0,6831.414,93.654,455.135,451.422,PAYLOAD,MEDIUM,US,10/31/2017,AFWTR,,3477482,205172756,0 SKYSAT C8,1 42990U 17068D   22153.32638785  .00005783  00000-0  15904-3 0  9996,2 42990  97.2953 272.9880 0002718 103.6210 256.5338 15.37577047256111,,,,,,,461.414,,7.638597332
2,GENERATED VIA SPACE-TRACK.ORG API,2022-06-02T17:55:29,18 SPCS,SKYSAT C7,2017-068E,EARTH,TEME,UTC,SGP4,2022-06-02T13:30:37.898496,15.37567284,0.0001943,97.2961,273.299,143.289,216.8488,0,U,42991,999,25615,0.00016539,6.02E-05,0,6831.443,93.654,454.635,451.98,PAYLOAD,MEDIUM,US,10/31/2017,AFWTR,,3477482,205173006,0 SKYSAT C7,1 42991U 17068E   22153.56293864  .00006015  00000-0  16539-3 0  9992,2 42991  97.2961 273.2990 0001943 143.2890 216.8488 15.37567284256151,,,,,,,461.443,,7.638581119
2,GENERATED VIA SPACE-TRACK.ORG API,2022-06-02T17:55:29,18 SPCS,SKYSAT C6,2017-068F,EARTH,TEME,UTC,SGP4,2022-06-02T13:15:11.530656,15.37490669,0.0005447,97.298,273.6693,113.6255,246.5563,0,U,42992,999,25616,0.00017134,6.22E-05,0,6831.67,93.659,457.256,449.813,PAYLOAD,MEDIUM,US,10/31/2017,AFWTR,,3477482,205171755,0 SKYSAT C6,1 42992U 17068F   22153.55221679  .00006221  00000-0  17134-3 0  9998,2 42992  97.2980 273.6693 0005447 113.6255 246.5563 15.37490669256163,,,,,,,461.67,,7.638454212
2,GENERATED VIA SPACE-TRACK.ORG API,2022-06-03T02:31:39,18 SPCS,FLOCK 3M 4,2017-068L,EARTH,TEME,UTC,SGP4,2022-06-02T18:31:24.571488,15.29064035,0.0014118,97.4607,268.027,114.9384,245.3325,0,U,42997,999,25466,0.00014849,4.12E-05,0,6856.746,94.175,488.291,468.931,PAYLOAD,SMALL,US,10/31/2017,AFWTR,,3477983,205207337,0 FLOCK 3M 4,1 42997U 17068L   22153.77181217  .00004124  00000-0  14849-3 0  9990,2 42997  97.4607 268.0270 0014118 114.9384 245.3325 15.29064035254668,,,,,,,486.746,,7.624474015
2,GENERATED VIA SPACE-TRACK.ORG API,2022-06-03T06:56:14,18 SPCS,MOHAMMED VI-A,2017-070A,EARTH,TEME,UTC,SGP4,2022-06-03T04:44:57.109344,14.77096516,0.0001363,97.9521,226.7132,94.7385,265.3983,0,U,43005,999,24624,9.00E-05,5.85E-06,0,7016.641,97.489,639.462,637.55,PAYLOAD,LARGE,MA,11/8/2017,FRGUI,,3478283,205222067,0 MOHAMMED VI-A,1 43005U 17070A   22154.19788321  .00000585  00000-0  89954-4 0  9997,2 43005  97.9521 226.7132 0001363  94.7385 265.3983 14.77096516246249,,,,,,,646.641,,7.537100239
2,GENERATED VIA SPACE-TRACK.ORG API,2022-06-03T07:06:16,18 SPCS,FENGYUN 3D,2017-072A,EARTH,TEME,UTC,SGP4,2022-06-03T02:39:49.083264,14.19206328,0.0001218,98.815,98.7807,336.6045,23.5079,0,U,43010,999,23573,4.58E-05,5.10E-07,0,7206.175,101.465,828.918,827.162,PAYLOAD,LARGE,PRC,11/14/2017,TSC,,3478399,205224556,0 FENGYUN 3D,1 43010U 17072A   22154.11098476  .00000051  00000-0  45787-4 0  9996,2 43010  98.8150  98.7807 0001218 336.6045  23.5079 14.19206328235731,,,,,,,836.175,,7.437320844
2,GENERATED VIA SPACE-TRACK.ORG API,2022-06-03T07:16:12,18 SPCS,HEAD-1,2017-072B,EARTH,TEME,UTC,SGP4,2022-06-03T03:35:33.715392,14.26601325,0.001141,98.8531,119.3806,107.3702,252.8721,0,U,43011,999,23688,0.00013924,2.91E-06,0,7181.251,100.939,811.31,794.922,PAYLOAD,MEDIUM,PRC,11/14/2017,TSC,,3478510,205226686,0 HEAD-1,1 43011U 17072B   22154.14969578  .00000291  00000-0  13924-3 0  9993,2 43011  98.8531 119.3806 0011410 107.3702 252.8721 14.26601325236884,,,,,,,811.251,,7.450216036
